[{"OBJECT_NAME":"ALOS (DAICHI)","OBJECT_ID":"2006-002A","EPOCH":"2026-03-17T03:03:33.499584","MEAN_MOTION":14.6983412,"ECCENTRICITY":7.234e-5,"INCLINATION":98.123,"RA_OF_ASC_NODE":32.0461,"ARG_OF_PERICENTER":73.2458,"MEAN_ANOMALY":286.8827,"EPHEMERIS_TYPE":0,"CLASSIFICATION_TYPE":"U","NORAD_CAT_ID":28931,"ELEMENT_SET_NO":999,"REV_AT_EPOCH":7457,"BSTAR":0.00021417326,"MEAN_MOTION_DOT":1.23e-5,"MEAN_MOTION_DDOT":0},{"OBJECT_NAME":"H-2A R/B","OBJECT_ID":"2006-002B","EPOCH":"2026-03-17T03:08:53.048256","MEAN_MOTION":15.16589419,"ECCENTRICITY":0.00519962,"INCLINATION":98.2418,"RA_OF_ASC_NODE":223.7965,"ARG_OF_PERICENTER":215.3822,"MEAN_ANOMALY":144.3955,"EPHEMERIS_TYPE":0,"CLASSIFICATION_TYPE":"U","NORAD_CAT_ID":28932,"ELEMENT_SET_NO":999,"REV_AT_EPOCH":9556,"BSTAR":0.00042533398,"MEAN_MOTION_DOT":8.52e-5,"MEAN_MOTION_DDOT":0},{"OBJECT_NAME":"RESURS-DK 1","OBJECT_ID":"2006-021A","EPOCH":"2026-03-16T19:24:54.767808","MEAN_MOTION":15.12798052,"ECCENTRICITY":0.00011282,"INCLINATION":69.933,"RA_OF_ASC_NODE":218.6056,"ARG_OF_PERICENTER":150.418,"MEAN_ANOMALY":209.705,"EPHEMERIS_TYPE":0,"CLASSIFICATION_TYPE":"U","NORAD_CAT_ID":29228,"ELEMENT_SET_NO":999,"REV_AT_EPOCH":8860,"BSTAR":0.00016831909,"MEAN_MOTION_DOT":2.855e-5,"MEAN_MOTION_DDOT":0},{"OBJECT_NAME":"CZ-4B R/B","OBJECT_ID":"2006-046C","EPOCH":"2026-03-17T03:05:53.947104","MEAN_MOTION":15.16982192,"ECCENTRICITY":0.00318413,"INCLINATION":97.5582,"RA_OF_ASC_NODE":121.018,"ARG_OF_PERICENTER":240.2506,"MEAN_ANOMALY":119.5558,"EPHEMERIS_TYPE":0,"CLASSIFICATION_TYPE":"U","NORAD_CAT_ID":29507,"ELEMENT_SET_NO":999,"REV_AT_EPOCH":6117,"BSTAR":0.00019555038,"MEAN_MOTION_DOT":3.84e-5,"MEAN_MOTION_DDOT":0},{"OBJECT_NAME":"CZ-2C R/B","OBJECT_ID":"2007-010B","EPOCH":"2026-03-17T04:38:48.228000","MEAN_MOTION":14.20248903,"ECCENTRICITY":0.00578309,"INCLINATION":98.3985,"RA_OF_ASC_NODE":189.0964,"ARG_OF_PERICENTER":272.3761,"MEAN_ANOMALY":87.0796,"EPHEMERIS_TYPE":0,"CLASSIFICATION_TYPE":"U","NORAD_CAT_ID":31114,"ELEMENT_SET_NO":999,"REV_AT_EPOCH":98078,"BSTAR":6.9260454e-5,"MEAN_MOTION_DOT":1.09e-6,"MEAN_MOTION_DDOT":0},{"OBJECT_NAME":"COSMO-SKYMED 1","OBJECT_ID":"2007-023A","EPOCH":"2026-03-17T06:52:42.857760","MEAN_MOTION":14.96600663,"ECCENTRICITY":0.00015684,"INCLINATION":97.8881,"RA_OF_ASC_NODE":267.3805,"ARG_OF_PERICENTER":90.5018,"MEAN_ANOMALY":269.6383,"EPHEMERIS_TYPE":0,"CLASSIFICATION_TYPE":"U","NORAD_CAT_ID":31598,"ELEMENT_SET_NO":999,"REV_AT_EPOCH":1604,"BSTAR":0.00028769551,"MEAN_MOTION_DOT":3.217e-5,"MEAN_MOTION_DDOT":0},{"OBJECT_NAME":"COSMOS 2428","OBJECT_ID":"2007-029A","EPOCH":"2026-03-17T06:01:58.965024","MEAN_MOTION":14.12947296,"ECCENTRICITY":0.00093979,"INCLINATION":70.9439,"RA_OF_ASC_NODE":187.4726,"ARG_OF_PERICENTER":269.401,"MEAN_ANOMALY":90.6035,"EPHEMERIS_TYPE":0,"CLASSIFICATION_TYPE":"U","NORAD_CAT_ID":31792,"ELEMENT_SET_NO":999,"REV_AT_EPOCH":96516,"BSTAR":1.4996607e-5,"MEAN_MOTION_DOT":-2.0e-7,"MEAN_MOTION_DDOT":0},{"OBJECT_NAME":"SL-16 R/B","OBJECT_ID":"2007-029B","EPOCH":"2026-03-17T00:13:15.670560","MEAN_MOTION":14.14836866,"ECCENTRICITY":0.00022883,"INCLINATION":70.9757,"RA_OF_ASC_NODE":156.9998,"ARG_OF_PERICENTER":276.3877,"MEAN_ANOMALY":256.5317,"EPHEMERIS_TYPE":0,"CLASSIFICATION_TYPE":"U","NORAD_CAT_ID":31793,"ELEMENT_SET_NO":999,"REV_AT_EPOCH":96640,"BSTAR":0.00018697277,"MEAN_MOTION_DOT":3.13e-6,"MEAN_MOTION_DDOT":0},{"OBJECT_NAME":"KORONAS-FOTON","OBJECT_ID":"2009-003A","EPOCH":"2026-03-17T00:36:59.530464","MEAN_MOTION":15.43502654,"ECCENTRICITY":0.00117026,"INCLINATION":82.427,"RA_OF_ASC_NODE":268.2495,"ARG_OF_PERICENTER":125.6134,"MEAN_ANOMALY":234.6205,"EPHEMERIS_TYPE":0,"CLASSIFICATION_TYPE":"U","NORAD_CAT_ID":33504,"ELEMENT_SET_NO":999,"REV_AT_EPOCH":94687,"BSTAR":0.00025307106,"MEAN_MOTION_DOT":0.00011407,"MEAN_MOTION_DDOT":0},{"OBJECT_NAME":"CZ-2C R/B","OBJECT_ID":"2011-030B","EPOCH":"2026-03-16T21:48:23.486688","MEAN_MOTION":14.81250046,"ECCENTRICITY":0.00518011,"INCLINATION":97.8556,"RA_OF_ASC_NODE":33.0277,"ARG_OF_PERICENTER":328.4169,"MEAN_ANOMALY":98.2177,"EPHEMERIS_TYPE":0,"CLASSIFICATION_TYPE":"U","NORAD_CAT_ID":37731,"ELEMENT_SET_NO":999,"REV_AT_EPOCH":79116,"BSTAR":0.00019263768,"MEAN_MOTION_DOT":1.481e-5,"MEAN_MOTION_DDOT":0},{"OBJECT_NAME":"H-2A R/B","OBJECT_ID":"2012-025E","EPOCH":"2026-03-17T03:45:50.769504","MEAN_MOTION":14.95223041,"ECCENTRICITY":0.00432916,"INCLINATION":98.4736,"RA_OF_ASC_NODE":43.8012,"ARG_OF_PERICENTER":289.1066,"MEAN_ANOMALY":70.5468,"EPHEMERIS_TYPE":0,"CLASSIFICATION_TYPE":"U","NORAD_CAT_ID":38341,"ELEMENT_SET_NO":999,"REV_AT_EPOCH":74933,"BSTAR":0.00021632633,"MEAN_MOTION_DOT":2.352e-5,"MEAN_MOTION_DDOT":0},{"OBJECT_NAME":"SHIJIAN-16 (SJ-16)","OBJECT_ID":"2013-057A","EPOCH":"2026-03-17T06:30:46.839744","MEAN_MOTION":14.92381789,"ECCENTRICITY":0.00153681,"INCLINATION":74.9735,"RA_OF_ASC_NODE":170.7369,"ARG_OF_PERICENTER":93.0636,"MEAN_ANOMALY":267.2311,"EPHEMERIS_TYPE":0,"CLASSIFICATION_TYPE":"U","NORAD_CAT_ID":39358,"ELEMENT_SET_NO":999,"REV_AT_EPOCH":67263,"BSTAR":0.00019121077,"MEAN_MOTION_DOT":1.933e-5,"MEAN_MOTION_DDOT":0},{"OBJECT_NAME":"SL-4 R/B","OBJECT_ID":"2014-021B","EPOCH":"2026-03-16T23:09:39.302208","MEAN_MOTION":15.39428092,"ECCENTRICITY":0.00968704,"INCLINATION":51.6063,"RA_OF_ASC_NODE":301.7801,"ARG_OF_PERICENTER":129.5376,"MEAN_ANOMALY":231.4219,"EPHEMERIS_TYPE":0,"CLASSIFICATION_TYPE":"U","NORAD_CAT_ID":39679,"ELEMENT_SET_NO":999,"REV_AT_EPOCH":65739,"BSTAR":0.00031321165,"MEAN_MOTION_DOT":0.00014258,"MEAN_MOTION_DDOT":0},{"OBJECT_NAME":"ALOS-2","OBJECT_ID":"2014-029A","EPOCH":"2026-03-17T07:02:33.766368","MEAN_MOTION":14.79535339,"ECCENTRICITY":0.00014333,"INCLINATION":97.9193,"RA_OF_ASC_NODE":174.7802,"ARG_OF_PERICENTER":93.8543,"MEAN_ANOMALY":266.2833,"EPHEMERIS_TYPE":0,"CLASSIFICATION_TYPE":"U","NORAD_CAT_ID":39766,"ELEMENT_SET_NO":999,"REV_AT_EPOCH":63799,"BSTAR":0.00023775667,"MEAN_MOTION_DOT":1.727e-5,"MEAN_MOTION_DDOT":0},{"OBJECT_NAME":"YAOGAN-29","OBJECT_ID":"2015-069A","EPOCH":"2026-03-17T06:48:45.764928","MEAN_MOTION":14.83003556,"ECCENTRICITY":0.00014269,"INCLINATION":98.0136,"RA_OF_ASC_NODE":104.7336,"ARG_OF_PERICENTER":22.1368,"MEAN_ANOMALY":337.9906,"EPHEMERIS_TYPE":0,"CLASSIFICATION_TYPE":"U","NORAD_CAT_ID":41038,"ELEMENT_SET_NO":999,"REV_AT_EPOCH":55700,"BSTAR":4.9701079e-5,"MEAN_MOTION_DOT":3.5e-6,"MEAN_MOTION_DDOT":0},{"OBJECT_NAME":"ASTRO-H (HITOMI)","OBJECT_ID":"2016-012A","EPOCH":"2026-03-16T23:18:47.247552","MEAN_MOTION":15.10055043,"ECCENTRICITY":0.00096598,"INCLINATION":30.9999,"RA_OF_ASC_NODE":309.5569,"ARG_OF_PERICENTER":43.9666,"MEAN_ANOMALY":316.1739,"EPHEMERIS_TYPE":0,"CLASSIFICATION_TYPE":"U","NORAD_CAT_ID":41337,"ELEMENT_SET_NO":999,"REV_AT_EPOCH":55333,"BSTAR":0.00015720904,"MEAN_MOTION_DOT":2.718e-5,"MEAN_MOTION_DDOT":0}]
